COSMOS 2419 (714)       
1 28915U 05050A   17119.64799266 -.00000008  00000-0  00000-0 0  9992
2 28915  65.4741  67.4885 0017446 348.4881 294.4489  2.13110351 88294
COSMOS 2425 (716)       
1 29670U 06062A   17119.73597858 -.00000007  00000-0  10000-3 0  9991
2 29670  65.4849 306.4951 0021802 351.7649  51.4069  2.13105003 80501
COSMOS 2426 (717)       
1 29671U 06062B   17119.38921483 -.00000007  00000-0  10000-3 0  9998
2 29671  65.5040 306.5958 0017214 157.3592 198.4679  2.13103018 80494
COSMOS 2424 (715)       
1 29672U 06062C   17119.72846149 -.00000007  00000-0  10000-3 0  9992
2 29672  65.4879 306.5070 0016561 155.8051 275.6952  2.13102266 80504
COSMOS 2433 (720)       
1 32275U 07052A   17119.62118671 -.00000008  00000-0  10000-3 0  9997
2 32275  65.4891  67.2646 0004541 292.3539 214.9085  2.13104760 74017
COSMOS 2432 (719)       
1 32276U 07052B   17119.90819343 -.00000008  00000-0  10000-3 0  9993
2 32276  65.5014  67.3265 0013854 334.0622 346.3589  2.13104061 74011
COSMOS 2434 (721)       
1 32393U 07065A   17119.64318947 -.00000007  00000-0  00000-0 0  9997
2 32393  65.1024 305.6701 0005841  94.5142 319.4601  2.13102942 72721
COSMOS 2436 (723)       
1 32395U 07065C   17119.77460087 -.00000007  00000-0  10000-3 0  9990
2 32395  65.1113 305.7118 0015950   7.8582 195.3761  2.13104348 72654
COSMOS 2443 (725)       
1 33379U 08046B   17119.91484064 -.00000009  00000-0  00000-0 0  9998
2 33379  65.4190  66.6413 0015700 187.3400  86.5240  2.13100886 66875
COSMOS 2456 (730)       
1 36111U 09070A   17119.47287156  .00000034  00000-0  00000-0 0  9994
2 36111  64.1780 185.2419 0005145 307.0069 147.2255  2.13102924 57383
COSMOS 2457 (733)       
1 36112U 09070B   17119.69465655  .00000031  00000-0  00000-0 0  9998
2 36112  64.1597 185.1539 0006293 177.5502 215.6135  2.13101573 57396
COSMOS 2458 (734)       
1 36113U 09070C   17119.73613692  .00000030  00000-0  10000-3 0  9993
2 36113  64.1661 185.1620 0001664 325.6915 147.2134  2.13102156 57398
COSMOS 2459 (731)       
1 36400U 10007A   17119.77768309 -.00000010  00000-0  10000-3 0  9993
2 36400  65.3976  66.3725 0029728 350.0098 139.7906  2.13102362 55749
COSMOS 2461 (735)       
1 36401U 10007B   17119.65045723 -.00000010  00000-0  10000-3 0  9999
2 36401  65.3910  66.3547 0006284  45.2494 257.5417  2.13102378 55737
COSMOS 2460 (732)       
1 36402U 10007C   17119.69739131 -.00000010  00000-0  10000-3 0  9997
2 36402  65.3812  66.3258 0002604 325.6657  54.5113  2.13101832 55749
COSMOS 2465 (737)       
1 37138U 10041B   17119.61318118 -.00000008  00000-0  00000-0 0  9995
2 37138  64.7001 305.6836 0034738 168.7492 266.8039  2.13107283 51811
COSMOS 2464 (736)       
1 37139U 10041C   17119.67717741 -.00000008  00000-0  00000-0 0  9997
2 37139  64.7078 305.6803 0024388  16.8120 290.9768  2.13102667 51808
COSMOS 2471 (701K)      
1 37372U 11009A   17119.64451771 -.00000010  00000-0  00000-0 0  9999
2 37372  65.3794  66.2747 0008339 247.0345 227.7001  2.13107753 48019
COSMOS 2474 (742)       
1 37829U 11055A   17119.67076242  .00000031  00000-0  00000-0 0  9998
2 37829  64.5027 185.7796 0009254 251.1015 214.9551  2.13101971 43383
COSMOS 2476 (744)       
1 37867U 11064A   17119.52866950  .00000033  00000-0  00000-0 0  9999
2 37867  64.4824 185.8578 0018498 245.1379 157.8399  2.13102068 42735
COSMOS 2477 (745)       
1 37868U 11064B   17119.72567839  .00000030  00000-0  00000-0 0  9993
2 37868  64.4906 185.8946 0016425 246.8493 126.4118  2.13101851 42694
COSMOS 2475 (743)       
1 37869U 11064C   17119.78133583  .00000030  00000-0  00000-0 0  9995
2 37869  64.4980 185.8828 0021327 271.7132 100.6101  2.13101945 42702
COSMOS 2485 (747)       
1 39155U 13019A   17119.47738022  .00000034  00000-0  00000-0 0  9996
2 39155  64.6518 185.8782 0018869 240.1736 168.4900  2.13102010 31203
COSMOS 2492 (754)       
1 39620U 14012A   17119.47716060 -.00000010  00000-0  10000-3 0  9994
2 39620  65.2707  66.2764 0017311 331.1076 111.4428  2.13103395 24154
COSMOS 2500 (755)       
1 40001U 14032A   17119.56380829 -.00000010  00000-0  00000-0 0  9997
2 40001  65.2104  66.2733 0005368 231.9203 140.2325  2.13102931 22377
COSMOS 2501 (702K)      
1 40315U 14075A   17119.71982503 -.00000010  00000-0  00000-0 0  9996
2 40315  64.4341 307.0383 0013679 205.2155  93.3244  2.13098609 18773
COSMOS 2514 (751)       
1 41330U 16008A   17119.74971237 -.00000010  00000-0  00000-0 0  9997
2 41330  65.0120  66.4254 0008874 232.5483 102.0937  2.13103492  9532
COSMOS 2516 (753)       
1 41554U 16032A   17119.89495501 -.00000009  00000-0  00000-0 0  9991
2 41554  64.6539 306.7840 0009563 216.1363 122.7944  2.13101701  7144
